CSS (TIANHE)            
1 48274U 21035A   24164.24204921  .00020708  00000+0  23634-3 0  9994
2 48274  41.4680 113.2614 0003174 214.3226 145.7408 15.61706311178324
